{
  "type": "FeatureCollection",
  "features": [
    {
      "type": "Feature",
      "properties": {
        "norad_id": 35890,
        "name": "COSMOS 2251 DEB",
        "group": "cosmos-2251-debris",
        "lat": 19.676246093590375,
        "lon": -123.91301447800295,
        "alt_km": 666.7570219763529,
        "timestamp": "2025-12-19T06:59:44.303576+00:00",
        "meta_object_name": "COSMOS 2251 DEB",
        "meta_object_id": "1993-036AUD",
        "meta_epoch": "2025-12-16T22:53:46.078656",
        "meta_mean_motion": 14.57543512,
        "meta_eccentricity": 0.00539437,
        "meta_inclination": 73.9365,
        "meta_ra_of_asc_node": 234.6414,
        "meta_arg_of_pericenter": 358.5125,
        "meta_mean_anomaly": 1.5869,
        "meta_ephemeris_type": 0,
        "meta_classification_type": "U",
        "meta_norad_cat_id": 35890,
        "meta_element_set_no": 999,
        "meta_rev_at_epoch": 65212,
        "meta_bstar": 0.0012168345,
        "meta_mean_motion_dot": 5.621e-05,
        "meta_mean_motion_ddot": 0,
        "tle_line1": "1 35890U 93036AUD 25350.95400554  .00005621  00000+0  12168-2 0  9996",
        "tle_line2": "2 35890  73.9365 234.6414 0053943 358.5125   1.5869 14.57543512652129"
      },
      "geometry": {
        "type": "Point",
        "coordinates": [
          -123.91301447800295,
          19.676246093590375
        ]
      }
    },
    {
      "type": "Feature",
      "properties": {
        "norad_id": 35891,
        "name": "COSMOS 2251 DEB",
        "group": "cosmos-2251-debris",
        "lat": -73.9700287493995,
        "lon": -12.118909253006134,
        "alt_km": 456.7674282284843,
        "timestamp": "2025-12-19T06:59:44.303586+00:00",
        "meta_object_name": "COSMOS 2251 DEB",
        "meta_object_id": "1993-036AUE",
        "meta_epoch": "2025-12-18T00:04:56.129088",
        "meta_mean_motion": 15.33761767,
        "meta_eccentricity": 0.00426193,
        "meta_inclination": 73.9894,
        "meta_ra_of_asc_node": 82.5774,
        "meta_arg_of_pericenter": 212.1701,
        "meta_mean_anomaly": 147.6903,
        "meta_ephemeris_type": 0,
        "meta_classification_type": "U",
        "meta_norad_cat_id": 35891,
        "meta_element_set_no": 999,
        "meta_rev_at_epoch": 67301,
        "meta_bstar": 0.0011390165,
        "meta_mean_motion_dot": 0.00038445,
        "meta_mean_motion_ddot": 0,
        "tle_line1": "1 35891U 93036AUE 25352.00342742  .00038445  00000+0  11390-2 0  9995",
        "tle_line2": "2 35891  73.9894  82.5774 0042619 212.1701 147.6903 15.33761767673010"
      },
      "geometry": {
        "type": "Point",
        "coordinates": [
          -12.118909253006134,
          -73.9700287493995
        ]
      }
    },
    {
      "type": "Feature",
      "properties": {
        "norad_id": 35895,
        "name": "COSMOS 2251 DEB",
        "group": "cosmos-2251-debris",
        "lat": -8.69194951931448,
        "lon": -26.200351299869148,
        "alt_km": 869.0640993925208,
        "timestamp": "2025-12-19T06:59:44.303596+00:00",
        "meta_object_name": "COSMOS 2251 DEB",
        "meta_object_id": "1993-036AUJ",
        "meta_epoch": "2025-12-11T07:10:31.732032",
        "meta_mean_motion": 14.01513994,
        "meta_eccentricity": 0.01987879,
        "meta_inclination": 74.0502,
        "meta_ra_of_asc_node": 350.1634,
        "meta_arg_of_pericenter": 88.7843,
        "meta_mean_anomaly": 273.6056,
        "meta_ephemeris_type": 0,
        "meta_classification_type": "U",
        "meta_norad_cat_id": 35895,
        "meta_element_set_no": 999,
        "meta_rev_at_epoch": 58992,
        "meta_bstar": 0.0020881347,
        "meta_mean_motion_dot": 3.73e-05,
        "meta_mean_motion_ddot": 0,
        "tle_line1": "1 35895U 93036AUJ 25345.29897838  .00003730  00000+0  20881-2 0  9997",
        "tle_line2": "2 35895  74.0502 350.1634 0198787  88.7843 273.6056 14.01513994589929"
      },
      "geometry": {
        "type": "Point",
        "coordinates": [
          -26.200351299869148,
          -8.69194951931448
        ]
      }
    },
    {
      "type": "Feature",
      "properties": {
        "norad_id": 35898,
        "name": "COSMOS 2251 DEB",
        "group": "cosmos-2251-debris",
        "lat": -67.86802924996535,
        "lon": 149.11284717088114,
        "alt_km": 644.3831751777525,
        "timestamp": "2025-12-19T06:59:44.303606+00:00",
        "meta_object_name": "COSMOS 2251 DEB",
        "meta_object_id": "1993-036AUM",
        "meta_epoch": "2025-12-17T02:32:30.687072",
        "meta_mean_motion": 14.94779467,
        "meta_eccentricity": 0.00792454,
        "meta_inclination": 73.9918,
        "meta_ra_of_asc_node": 288.6268,
        "meta_arg_of_pericenter": 70.8936,
        "meta_mean_anomaly": 307.548,
        "meta_ephemeris_type": 0,
        "meta_classification_type": "U",
        "meta_norad_cat_id": 35898,
        "meta_element_set_no": 999,
        "meta_rev_at_epoch": 66875,
        "meta_bstar": 0.00065982938,
        "meta_mean_motion_dot": 7.606e-05,
        "meta_mean_motion_ddot": 0,
        "tle_line1": "1 35898U 93036AUM 25351.10591073  .00007606  00000+0  65983-3 0  9998",
        "tle_line2": "2 35898  73.9918 288.6268 0079245  70.8936 307.5480 14.94779467668759"
      },
      "geometry": {
        "type": "Point",
        "coordinates": [
          149.11284717088114,
          -67.86802924996535
        ]
      }
    },
    {
      "type": "Feature",
      "properties": {
        "norad_id": 35901,
        "name": "COSMOS 2251 DEB",
        "group": "cosmos-2251-debris",
        "lat": -14.413828334300058,
        "lon": -166.39407844431648,
        "alt_km": 552.1161977886604,
        "timestamp": "2025-12-19T06:59:44.303617+00:00",
        "meta_object_name": "COSMOS 2251 DEB",
        "meta_object_id": "1993-036AUQ",
        "meta_epoch": "2025-12-18T07:54:31.180320",
        "meta_mean_motion": 15.07563812,
        "meta_eccentricity": 0.00074748,
        "meta_inclination": 74.0102,
        "meta_ra_of_asc_node": 11.3599,
        "meta_arg_of_pericenter": 345.0376,
        "meta_mean_anomaly": 31.2157,
        "meta_ephemeris_type": 0,
        "meta_classification_type": "U",
        "meta_norad_cat_id": 35901,
        "meta_element_set_no": 999,
        "meta_rev_at_epoch": 86211,
        "meta_bstar": 0.0030424151,
        "meta_mean_motion_dot": 0.00046563,
        "meta_mean_motion_ddot": 0,
        "tle_line1": "1 35901U 93036AUQ 25352.32952755  .00046563  00000+0  30424-2 0  9992",
        "tle_line2": "2 35901  74.0102  11.3599 0007474 345.0376  31.2157 15.07563812862117"
      },
      "geometry": {
        "type": "Point",
        "coordinates": [
          -166.39407844431648,
          -14.413828334300058
        ]
      }
    },
    {
      "type": "Feature",
      "properties": {
        "norad_id": 35902,
        "name": "COSMOS 2251 DEB",
        "group": "cosmos-2251-debris",
        "lat": 25.729591396376783,
        "lon": -129.3483984447171,
        "alt_km": 754.1301523972543,
        "timestamp": "2025-12-19T06:59:44.303629+00:00",
        "meta_object_name": "COSMOS 2251 DEB",
        "meta_object_id": "1993-036AUR",
        "meta_epoch": "2025-12-12T01:33:56.017152",
        "meta_mean_motion": 14.26898947,
        "meta_eccentricity": 0.01020569,
        "meta_inclination": 73.9828,
        "meta_ra_of_asc_node": 235.8058,
        "meta_arg_of_pericenter": 350.6999,
        "meta_mean_anomaly": 9.2255,
        "meta_ephemeris_type": 0,
        "meta_classification_type": "U",
        "meta_norad_cat_id": 35902,
        "meta_element_set_no": 999,
        "meta_rev_at_epoch": 61120,
        "meta_bstar": 0.0016300387,
        "meta_mean_motion_dot": 4.159e-05,
        "meta_mean_motion_ddot": 0,
        "tle_line1": "1 35902U 93036AUR 25346.06523168  .00004159  00000+0  16300-2 0  9991",
        "tle_line2": "2 35902  73.9828 235.8058 0102056 350.6999   9.2255 14.26898947611205"
      },
      "geometry": {
        "type": "Point",
        "coordinates": [
          -129.3483984447171,
          25.729591396376783
        ]
      }
    },
    {
      "type": "Feature",
      "properties": {
        "norad_id": 35905,
        "name": "COSMOS 2251 DEB",
        "group": "cosmos-2251-debris",
        "lat": -54.66958592410746,
        "lon": 41.33955822949303,
        "alt_km": 526.5018918161222,
        "timestamp": "2025-12-19T06:59:44.303639+00:00",
        "meta_object_name": "COSMOS 2251 DEB",
        "meta_object_id": "1993-036AUU",
        "meta_epoch": "2025-12-18T07:30:24.992928",
        "meta_mean_motion": 14.99094801,
        "meta_eccentricity": 0.00906852,
        "meta_inclination": 74.0306,
        "meta_ra_of_asc_node": 199.498,
        "meta_arg_of_pericenter": 278.2815,
        "meta_mean_anomaly": 80.8096,
        "meta_ephemeris_type": 0,
        "meta_classification_type": "U",
        "meta_norad_cat_id": 35905,
        "meta_element_set_no": 999,
        "meta_rev_at_epoch": 88666,
        "meta_bstar": 0.00045535942,
        "meta_mean_motion_dot": 5.988e-05,
        "meta_mean_motion_ddot": 0,
        "tle_line1": "1 35905U 93036AUU 25352.31278927  .00005988  00000+0  45536-3 0  9994",
        "tle_line2": "2 35905  74.0306 199.4980 0090685 278.2815  80.8096 14.99094801886665"
      },
      "geometry": {
        "type": "Point",
        "coordinates": [
          41.33955822949303,
          -54.66958592410746
        ]
      }
    }
  ]
}